{"epoch":1784710044,"count":18256,"objects":[{"id":"37951","name":"LUCH 5A","type":"PAYLOAD","l1":"1 37951U 11074B   26202.43533948 -.00000054  00000-0  00000-0 0  9999","l2":"2 37951   8.8385  73.3022 0002846  60.8161 128.8299  1.00274538 53397"},{"id":"38091","name":"BEIDOU 11","type":"PAYLOAD","l1":"1 38091U 12008A   26202.62793793  .00000056  00000-0  00000-0 0  9991","l2":"2 38091   3.6578  69.4821 0007171 271.0245 243.5938  1.00272736 52716"},{"id":"38250","name":"BEIDOU 12","type":"PAYLOAD","l1":"1 38250U 12018A   26201.48012296 -.00000102  00000-0  00000+0 0  9996","l2":"2 38250  55.7268 303.7525 0021072 272.1395  87.6505  1.86229649 96563"},{"id":"38251","name":"BEIDOU 13","type":"PAYLOAD","l1":"1 38251U 12018B   26200.87551788 -.00000099  00000-0  00000-0 0  9999","l2":"2 38251  55.6273 302.9841 0012238 272.0265  87.8661  1.86229306 96554"},{"id":"38652","name":"SES 5","type":"PAYLOAD","l1":"1 38652U 12036A   26202.61731535  .00000036  00000-0  00000-0 0  9998","l2":"2 38652   0.0452 318.7186 0002075 159.8858  47.9782  1.00272397 44803"},{"id":"38775","name":"BEIDOU 15","type":"PAYLOAD","l1":"1 38775U 12050B   26201.12202765 -.00000077  00000-0  00000-0 0  9999","l2":"2 38775  56.5733  61.8055 0012727   2.2324 357.8361  1.86230986 93927"},{"id":"38779","name":"GSAT 10","type":"PAYLOAD","l1":"1 38779U 12051B   26202.63279127 -.00000163  00000-0  00000-0 0  9993","l2":"2 38779   0.0745 263.6320 0007621 192.3187 154.2549  1.00272679 50448"},{"id":"38833","name":"NAVSTAR 67 (USA 239)","type":"PAYLOAD","l1":"1 38833U 12053A   26202.21868512  .00000014  00000-0  00000-0 0  9996","l2":"2 38833  53.5902 142.2050 0182408  66.3332 295.5491  2.00568090100120"},{"id":"38857","name":"GALILEO-FM3","type":"PAYLOAD","l1":"1 38857U 12055A   26200.15144010 -.00000035  00000-0  00000-0 0  9999","l2":"2 38857  55.8248 100.6680 0003622 312.6356  47.3724  1.70473478 85556"},{"id":"38953","name":"BEIDOU 16","type":"PAYLOAD","l1":"1 38953U 12059A   26202.63296462 -.00000177  00000-0  00000-0 0  9991","l2":"2 38953   4.5067  73.1510 0008954 328.7589 209.3728  1.00273137 50254"},{"id":"38977","name":"LUCH 5B","type":"PAYLOAD","l1":"1 38977U 12061A   26202.39912332 -.00000143  00000-0  00000+0 0  9996","l2":"2 38977  10.5558  49.5380 0003896 142.5717 234.4338  1.00271106 49954"},{"id":"39155","name":"COSMOS 2485 (GLONASS)","type":"PAYLOAD","l1":"1 39155U 13019A   26201.22743888 -.00000049  00000-0  00000-0 0  9994","l2":"2 39155  65.4381  72.4960 0022558 230.6909 129.1761  2.13103050102983"},{"id":"39166","name":"NAVSTAR 68 (USA 242)","type":"PAYLOAD","l1":"1 39166U 13023A   26201.08939617 -.00000038  00000-0  00000-0 0  9990","l2":"2 39166  54.4792 267.6316 0141392  51.1093 310.2110  2.00563399 96547"},{"id":"39199","name":"IRNSS R1A","type":"PAYLOAD","l1":"1 39199U 13034A   26202.19940318  .00000051  00000-0  00000-0 0  9995","l2":"2 39199  35.7933  63.3827 0018675 179.4943 182.8995  1.00271492 47713"},{"id":"39533","name":"NAVSTAR 69 (USA 248)","type":"PAYLOAD","l1":"1 39533U 14008A   26201.09126277  .00000031  00000-0  00000-0 0  9995","l2":"2 39533  53.6581 147.9776 0084050 231.5729 127.6475  2.00561932 90346"},{"id":"39617","name":"ASTRA 5B","type":"PAYLOAD","l1":"1 39617U 14011B   26202.62095537  .00000139  00000-0  00000-0 0  9995","l2":"2 39617   0.0637 310.8625 0002173 176.5673  58.9312  1.00271824 45010"},{"id":"39620","name":"COSMOS 2492 (GLONASS)","type":"PAYLOAD","l1":"1 39620U 14012A   26201.18630057 -.00000083  00000-0  00000-0 0  9991","l2":"2 39620  65.2760 312.8143 0010304 316.7836  43.1566  2.13103109 95944"},{"id":"39635","name":"IRNSS 1B","type":"PAYLOAD","l1":"1 39635U 14017A   26202.19940318  .00000135  00000-0  00000-0 0  9995","l2":"2 39635  28.8748 239.8183 0021360 191.2399 354.8007  1.00267488 45131"},{"id":"39727","name":"LUCH 5V","type":"PAYLOAD","l1":"1 39727U 14023A   26202.63504462 -.00000271  00000-0  00000-0 0  9991","l2":"2 39727   5.2161  69.3868 0002241  79.1395 114.2256  1.00271869 44708"},{"id":"39741","name":"NAVSTAR 70 (USA 251)","type":"PAYLOAD","l1":"1 39741U 14026A   26202.36466343 -.00000110  00000-0  00000-0 0  9997","l2":"2 39741  56.4797 330.1873 0038183 325.5925  34.1656  2.00558571 89222"},{"id":"40001","name":"COSMOS 2500 (GLONASS)","type":"PAYLOAD","l1":"1 40001U 14032A   26201.82488942 -.00000086  00000-0  00000-0 0  9996","l2":"2 40001  65.2108 312.5368 0008498 191.5503 168.4514  2.13105824 94176"},{"id":"40105","name":"NAVSTAR 71 (USA 256)","type":"PAYLOAD","l1":"1 40105U 14045A   26201.95768618 -.00000061  00000-0  00000-0 0  9993","l2":"2 40105  55.3751  87.1193 0034656 118.4770 241.9232  2.00560707 86755"},{"id":"40128","name":"GALILEO 5 (261)","type":"PAYLOAD","l1":"1 40128U 14050A   26201.83400234 -.00000062  00000-0  00000-0 0  9999","l2":"2 40128  48.8385 272.0546 1679286 180.7098 179.0701  1.85519911 78944"},{"id":"40129","name":"GALILEO 6 (262)","type":"PAYLOAD","l1":"1 40129U 14050B   26202.62841053 -.00000055  00000-0  00000-0 0  9998","l2":"2 40129  48.8552 271.1079 1680666 181.4563 178.0378  1.85520496 81124"},{"id":"40269","name":"IRNSS 1C","type":"PAYLOAD","l1":"1 40269U 14061A   26201.70602686 -.00000167  00000-0  00000-0 0  9994","l2":"2 40269   6.5999  88.2929 0021939   6.0783 181.3257  1.00271443 43025"},{"id":"40294","name":"NAVSTAR 72 (USA 258)","type":"PAYLOAD","l1":"1 40294U 14068A   26202.32479757 -.00000084  00000-0  00000-0 0  9997","l2":"2 40294  57.0112  29.6409 0067462  72.4647 288.3087  2.00553678 85894"},{"id":"40315","name":"COSMOS 2501 (GLONASS)","type":"PAYLOAD","l1":"1 40315U 14075A   26202.55658060  .00000090  00000-0  00000+0 0  9995","l2":"2 40315  63.6189 189.1825 0022596 212.4587 147.4043  2.13101380 90589"},{"id":"40534","name":"NAVSTAR 73 (USA 260)","type":"PAYLOAD","l1":"1 40534U 15013A   26201.96718444  .00000074  00000-0  00000-0 0  9991","l2":"2 40534  53.1254 202.7533 0110322  40.4930 320.3352  2.00574219 82502"},{"id":"40544","name":"GALILEO 7 (263)","type":"PAYLOAD","l1":"1 40544U 15017A   26201.64801056 -.00000108  00000-0  00000-0 0  9992","l2":"2 40544  56.7747 340.6846 0002805 253.6910 106.2721  1.70476362 69771"},{"id":"40545","name":"GALILEO 8 (264)","type":"PAYLOAD","l1":"1 40545U 15017B   26201.31731189 -.00000108  00000-0  00000-0 0  9996","l2":"2 40545  56.7823 340.7123 0002939 234.3577 125.6085  1.70475832 32813"}]}